Type-TH,Type-EN,SubType-TH,SubType-EN,Attraction-name TH,Attraction-name EN,Organization-Unit-TH,Organization-Unit-EN,Latitude,Longtiude,Open-Houre,Facility,Contact,Province,District,Subdistrict,,พิกัด
สวนพฤกษศาสตร์,Botanical Garden, -, -,สวนพฤกษศาสตร์วังน้ำเย็น ,Wang Nam Yen Botanical Garden,สำนักวิจัยการอนุรักษ์ป่าไม้และพันธุ์พืช,Forest and Plant Conservation Research Office,13.497,102.015,ทุกวัน (เวลาราชการ 8.30 น. -16.30 น.), -บ้านพัก ห้องประชุม,089-811-031,สระแก้ว,วังน้ำเย็น,ทุ่งมหาเจริญ,,"13.497, 102.015"
สวนพฤกษศาสตร์,Botanical Garden, -, -,สวนพฤกษศาสตร์พุแค ,Phu Khae Botanical Garden,สำนักวิจัยการอนุรักษ์ป่าไม้และพันธุ์พืช,Forest and Plant Conservation Research Office,14.6712,100.8846,ทุกวัน (เวลาราชการ 8.30 น. -16.30 น.), -บ้านพัก ห้องประชุม,036-347-457,สระบุรี,เฉลิมพระเกียรติ,พุแค,,"14.6712, 100.8846"
สวนพฤกษศาสตร์,Botanical Garden, -, -,สวนพฤกษศาสตร์บ้านเพ ,Ban Phe Botanical Garden,สำนักวิจัยการอนุรักษ์ป่าไม้และพันธุ์พืช,Forest and Plant Conservation Research Office,12.6335,101.4586,ทุกวัน (เวลาราชการ 8.30 น. -16.30 น.), -บ้านพัก ห้องประชุม,038-653-022,ระยอง,เมืองระยอง,แกลง,,"12.6335, 101.4586"
สวนพฤกษศาสตร์,Botanical Garden, -, -,สวนพฤกษศาสตร์เขาหินซ้อน,Khao Hin Son Botanical Garden,สำนักวิจัยการอนุรักษ์ป่าไม้และพันธุ์พืช,Forest and Plant Conservation Research Office,13.7526,101.5064,ทุกวัน (เวลาราชการ 8.30 น. -16.30 น.), -บ้านพัก ห้องประชุม,"038-599-113, 038-554-920",ฉะเชิงเทรา,พนมสารคาม,เขาหินซ้อน,,"13.7526, 101.5064"
สวนพฤกษศาสตร์,Botanical Garden, -, -,สวนพฤกษศาสตร์เขาช่อง ,Khao Chong Botanical Garden,สำนักวิจัยการอนุรักษ์ป่าไม้และพันธุ์พืช,Forest and Plant Conservation Research Office,7.5577,99.7761,ทุกวัน (เวลาราชการ 8.30 น. -16.30 น.), -บ้านพัก ห้องประชุม,075-573-521,ตรัง,นาโยง,นาโยง,,"7.5577, 99.7761"
สวนพฤกษศาสตร์,Botanical Garden, -, -,สวนพฤกษศาสตร์ทุ่งค่าย ,Thung Khai Botanical Garden,สำนักวิจัยการอนุรักษ์ป่าไม้และพันธุ์พืช,Forest and Plant Conservation Research Office,7.4703,99.6401,ทุกวัน (เวลาราชการ 8.30 น. -16.30 น.), -บ้านพัก ห้องประชุม,075-280-166,ตรัง,ย่านตาขาว,ย่านตาขาว,,"7.4703, 99.6401"
สวนพฤกษศาสตร์,Botanical Garden, -, -,สวนพฤกษศาสตร์พนางตุง ,Phanang Tung Botanical Garden,สำนักวิจัยการอนุรักษ์ป่าไม้และพันธุ์พืช,Forest and Plant Conservation Research Office,7.7335,100.1511,ทุกวัน (เวลาราชการ 8.30 น. -16.30 น.), -,074-651-187,พัทลุง,ควนขนุน,พนางตุง,,"7.7335, 100.1511"
สวนพฤกษศาสตร์,Botanical Garden, -, -,สวนพฤกษศาสตร์ชายแดนภาคใต้,Southern Boundary Botanical Garden,สำนักวิจัยการอนุรักษ์ป่าไม้และพันธุ์พืช,Forest and Plant Conservation Research Office,6.649,101.8659,ทุกวัน (เวลาราชการ 8.30 น. -16.30 น.), -,073-336-290-3,นราธิวาส,เมือง,กะลุวอ,,"6.649, 101.8659"
สวนพฤกษศาสตร์,Botanical Garden, -, -,สวนพฤกษศาสตร์ดงฟ้าห่วน ,Dong Fa Huan Botanical Garden,สำนักวิจัยการอนุรักษ์ป่าไม้และพันธุ์พืช,Forest and Plant Conservation Research Office,15.3053,104.7988,ทุกวัน (เวลาราชการ 8.30 น. -16.30 น.), -บ้านพัก ห้องประชุม,088-595-1252,อุบลราชธานี,เมือง,ขามใหญ่,,"15.3053, 104.7988"
สวนพฤกษศาสตร์,Botanical Garden, -, -,สวนพฤกษศาสตร์สกุโณทยาน ,Sakunothayan Botanical Garden ,สำนักวิจัยการอนุรักษ์ป่าไม้และพันธุ์พืช,Forest and Plant Conservation Research Office,16.836,100.5347,ทุกวัน (เวลาราชการ 8.30 น. -16.30 น.), -,085-731-1200,พิษณุโลก,วังทอง,วังนกแอ่น,,"16.836, 100.5347"
สวนพฤกษศาสตร์วรรณคดี,Botanical Garden for Plants in Thai Literary, -, -,สวนพฤกษศาสตร์วรรณคดีบ้านจอมบึง,Ban Chom Bueng Botanical Garden for Plants in Thai Literary,สำนักวิจัยการอนุรักษ์ป่าไม้และพันธุ์พืช,Forest and Plant Conservation Research Office,13.61,99.671,ทุกวัน (เวลาราชการ 8.30 น. -16.30 น.), -บ้านพัก ห้องประชุม,081-866-9338,ราชบุรี,จอมบึง,ปากช่อง,,"13.61, 99.671"
สวนพฤกษศาสตร์วรรณคดี,Botanical Garden for Plants in Thai Literary, -, -,สวนพฤกษศาสตร์วรรณคดีควนเขาวัง,Kuankhaowang Botanical Garden for Plants in Thai Literary,สำนักวิจัยการอนุรักษ์ป่าไม้และพันธุ์พืช,Forest and Plant Conservation Research Office,7.0223,100.2915,ทุกวัน (เวลาราชการ 8.30 น. -16.30 น.), -บ้านพัก ห้องประชุม,074-323-306,สงขลา,หาดใหญ่,ฉลุง,,"7.0223, 100.2915"
สวนพฤกษศาสตร์วรรณคดี,Botanical Garden for Plants in Thai Literary, -, -,สวนพฤกษศาสตร์วรรณคดีดงมะอี่ ,Dong Ma Ei Botanical Garden for Plants in Thai Literary,สำนักวิจัยการอนุรักษ์ป่าไม้และพันธุ์พืช,Forest and Plant Conservation Research Office,16.395,104.31,ทุกวัน (เวลาราชการ 8.30 น. -16.30 น.), -,043-343-411-2,ร้อยเอ็ด,หนองพอก,บึงงาม,,"16.395, 104.31"
สวนพฤกษศาสตร์วรรณคดี,Botanical Garden for Plants in Thai Literary, -, -,สวนพฤกษศาสตร์วรรณคดีแม่เหี๊ยะ ,Mae Hia Botanical Garden for Plants in Thai Literary,สำนักวิจัยการอนุรักษ์ป่าไม้และพันธุ์พืช,Forest and Plant Conservation Research Office,18.743,98.923,ทุกวัน (เวลาราชการ 8.30 น. -16.30 น.), -,053-276-100,เชียงใหม่,หางดง,หนองควาย,,"18.743, 98.923"
สวนรวมพรรณไม้ป่า,Garden for Wild Plant Collections, -, -,สวนรวมพรรณไม้ป่า 60 พรรษา มหาราชินี ภาคกลาง ,Her Majesty the Queen's 60th Birthday Anniversary Garden for Wild Plant Collections Central,สำนักวิจัยการอนุรักษ์ป่าไม้และพันธุ์พืช,Forest and Plant Conservation Research Office,13.606,99.663,ทุกวัน (เวลาราชการ 8.30 น. -16.30 น.), -,053-276-100,ราชบุรี,เมือง,หินกอง,,"13.606, 99.663"
สวนรวมพรรณไม้ป่า,Garden for Wild Plant Collections, -, -,สวนรวมพรรณไม้ป่า 60 พรรษา มหาราชินี ภาคใต้,Her Majesty the Queen's 60th Birthday Anniversary Garden for Wild Plant Collections Peninasular,สำนักวิจัยการอนุรักษ์ป่าไม้และพันธุ์พืช,Forest and Plant Conservation Research Office,6.1218,101.925,ทุกวัน (เวลาราชการ 8.30 น. -16.30 น.), -,081-698-0562,นราธิวาส,สุไหงปาดี,สุไหงปาดี,,"6.1218, 101.925"
สวนรวมพรรณไม้ป่า,Garden for Wild Plant Collections, -, -,สวนรวมพรรณไม้ป่า 60 พรรษา มหาราชินี ภาคตะวันออกเฉียงเหนือ ,Her Majesty the Queen's 60th Birthday Anniversary Garden for Wild Plant Collections Northeastern,สำนักวิจัยการอนุรักษ์ป่าไม้และพันธุ์พืช,Forest and Plant Conservation Research Office,17.161,102.7006,ทุกวัน (เวลาราชการ 8.30 น. -16.30 น.), -บ้านพัก ห้องประชุม,042-221-725 ต่อ 400,อุดรธานี,หนองแสง,ทับกุง,,"17.161, 102.7006"
สวนรวมพรรณไม้ป่า,Garden for Wild Plant Collections, -, -,สวนรวมพรรณไม้ป่า 60 พรรษา มหาราชินี ภาคเหนือ,Her Majesty the Queen's 60th Birthday Anniversary Garden for Wild Plant Collections Northern,สำนักวิจัยการอนุรักษ์ป่าไม้และพันธุ์พืช,Forest and Plant Conservation Research Office,18.741,98.912,ทุกวัน (เวลาราชการ 8.30 น. -16.30 น.), -,053-276-100 ต่อ 33,เชียงใหม่,หางดง,หนองควาย,,"18.741, 98.912"
สวนรุกขชาติ,Arboretum,สวนรุกขชาติเขาฉกรรจ์,Khao Cha Kun Arboretum,สวนรุกขชาติเขาฉกรรจ์,Khao Cha Kun Arboretum,สำนักวิจัยการอนุรักษ์ป่าไม้และพันธุ์พืช,Forest and Plant Conservation Reseach Office,13.660666,102.081034,08.00 - 16.00 น.,ซุ้มนั่งพักผ่อน 15 ซุ้ม และห้องน้ำห้องสุขา 4 หลัง,อ.เขาฉกรรจ์ จ.สระแก้ว 27000  E-mail : p_potkan@hotmail.com Tel: 083-1125137,สระแก้ว,เขาฉกรรจ์,เขาฉกรรจ์,,"13.660666, 102.081034"
สวนรุกขชาติ,Arboretum,สวนรุกขชาติมวกเหล็ก,Muak Lek  Arboretum,น้ำตกมวกเหล็ก,Muak Lek Waterfall,สำนักวิจัยการอนุรักษ์ป่าไม้และพันธุ์พืช,Forest and Plant Conservation Reseach Office,14.64401,101.20544,08.00 - 17.00 น.,บ้านพักรับรอง 2 และ 4 ห้องนอน (อุปกรณ์เฟอร์นิเจอร์ ไม่มี เช่น แอร์),172 ต. มิตรภาพ อ. มวกเหล็ก จ. จังหวัดสระบุรี 18180 E-mail :muaklek-waterfall@hotmaill.com/oad-pathum@hotmail.com Fax: 036344100,สระบุรี,มวกเหล็ก,มิตรภาพ,,"14.64401, 101.20544"
สวนรุกขชาติ,Arboretum,สวนรุกขชาติวังก้านเหลือง,Wang Kan Lueang Arboretum,น้ำตกวังก้านเหลือง,Wang Kan Lueang Waterfall,สำนักวิจัยการอนุรักษ์ป่าไม้และพันธุ์พืช,Forest and Plant Conservation Reseach Office,15.118893,101.112381,ทุกวัน 08.00 - 17.30 น.,สำนักงาน ห้องน้ำ ห้องสุขา ศาลาพักผ่อน อาคารเอกนกประสงค์ ลานจอดรถ ทางเดิน ฯลฯ,ต.ท่าดินดำ อ.ชัยบาดาล จ.ลพบุรี 15130 E-mail : kunmho@yahoo.co.th Tel : 0839630305,ลพบุรี,ชัยบาดาล,ท่าดินดำ,,"15.118893, 101.112381"
สวนรุกขชาติ,Arboretum,สวนรุกขชาติคูเมือง,Ku Mueang Arboretum,เมืองโบราณบ้านคูเมือง,Ban Ku Mueang Arboretum City,สำนักวิจัยการอนุรักษ์ป่าไม้และพันธุ์พืช,Forest and Plant Conservation Reseach Office,14.993168,100.278568,08.00 - 17.30 น.,สำนักงานชั่วคราว ห้องสุขา ศาลาพักผ่อน,ต. ห้วยชัน อ. อินทร์บุรี จ. สิงห์บุรี  16110 E-mail :  sanya-jundat@hotmail.com/sanyachatdat@hotmail.com,สิงห์บุรี,อินทร์บุรี,ห้วยขัน,,"14.993168, 100.278568"
สวนรุกขชาติ,Arboretum,สวนรุกขชาติหนองตาอยู่,Nongtayu Arboretum,สวนรุกขชาติหนองตาอยู่,Nongtayu Arboretum,สำนักวิจัยการอนุรักษ์ป่าไม้และพันธุ์พืช,Forest and Plant Conservation Reseach Office,13.157019,100.995907,08.00 - 17.00 น.,อาคารที่พักนักท่องเที่ยว ขนาด 8 คน (แบบอาคารชุด) ขนาด 4 คน (แบบ 2 ห้องนอน) (ไม่มี เช่น ทีวี ตู้เย็น) ห้องน้ำและห้องสุขา ชาย - หญิง ขนาด 8 ห้อง ศาลาพักผ่อนสำหรับนักท่องเที่ยว,316/3 ม.6 ต.สุรศักดิ์ อ. ศรีราชา จ. ชลบุรี 20110 E-mail : songtip1218@hotmail.co.th Tel : 038338001,ชลบุรี,ศรีราชา,สุรศักดิ์,,"13.157019, 100.995907"
สวนรุกขชาติ,Arboretum,สวนรุกขชาติสมเด็จพระปิ่นเกล้า,Somdet Phra Pinklao Arboretum,ศาลสมเด็จพระปิ่นเกล้า / ศูนย์ศึกษาการพัฒนาเขาหินซ้อนอันเนื่องมาจากพระราชดำริ / วัดสมารัตนาราม / วัดโสธรวรารามวรวิหาร / ตลาดโรงเกลือ / เขตรักษาพันธุ์สัตว์ป่าเขาอ่างฤาไน,Shrine of Somdet Phra Pinklao / Khao Hin Son Royal Development and Study Center / Saman rattanaram Temple / Sothon Wararam Worawihan Temple / Rong Kluea Market / Khao ang rue nai wildlife sanctuary,สำนักวิจัยการอนุรักษ์ป่าไม้และพันธุ์พืช,Forest and Plant Conservation Reseach Office,13.759618,101.512819,08.00 - 16.30 น.,อาคารสำนักงาน อาคารเอนกประสงค์ ศาลาแปดเหลี่ยม และห้องน้ำชายหญิง,อ.พนมสารคาม จ. ฉะเชิงเทรา 24120 E-mail : phrapinklao_sriracha@dnp.go.th/wassana_pam@hotmail.co.th,ฉะเชิงเทรา,พนมสารคาม,เขาหินซ้อน,,"13.759618, 101.512819"
สวนรุกขชาติ,Arboretum,สวนรุกขชาติ 100 ปี กรมป่าไม้ (ทุ่งขนาย),Thung ka nai  Arboretum,อุทยานแห่งชาติแก่งกระจาน,Kang ka jarn  National Park,สำนักวิจัยการอนุรักษ์ป่าไม้และพันธุ์พืช,Forest and Plant Conservation Reseach Office,13.219747,99.769281,08.30 - 16.30 น.,-,ม. 2 ต.เขาย้อย อ.เขาย้อย จ. เพชรบุรี ,เพชรบุรี ,เขาย้อย,เขาย้อย,,"13.219747, 99.769281"
สวนรุกขชาติ,Arboretum,สวนรุกขชาติถ้ำจอมพล,Thum chom phon Arboretum,ถ้ำจอมพล,Chomphon Cave,สำนักวิจัยการอนุรักษ์ป่าไม้และพันธุ์พืช,Forest and Plant Conservation Reseach Office,13.627438,99.586608,08.30 - 16.30 น.,อาคารสำนักงาน 1 หลัง บ้านพัก 3 หลัง ศาลาพักผ่อน 1 หลัง ห้องน้ำ ชาย - หญิง 4 ห้อง และปัจจุบันกำลังก่อสร้างห้องน้ำ ชาย - หญิง คนพิการ 1 หลัง โดยได้รับงบประมาณสนับสนุนจากสำนักงานการท่องเที่ยวจังหวัดราชบุรี ,อ. จอมบึง จ. ราชบุรี 70150  E-mail : Thomchomphon@hotmail.com,ราชบุรี,จอมบึง,จอมบึง,,"13.627438, 99.586608"
สวนรุกขชาติ,Arboretum,สวนรุกขชาติด่านช้าง,Dan Chang Arboretum,อุทยานแห่งชาติพุเตย,Phutoei National Park,สำนักวิจัยการอนุรักษ์ป่าไม้และพันธุ์พืช,Forest and Plant Conservation Reseach Office,18.161226,98.281717,08.30 - 16.30 น.,อาคารสำนักงาน ศาลาพักผ่อนหย่อนใจ ห้องน้ำ,อ. ด่านช้าง จ. สุพรรณบุรี 72180  E-mail : danchangarboretum@hotmail.comchatchai.f29@gmail.com,สุพรรณบุรี,ด่านช้าง,ด่านช้าง,,"18.161226, 98.281717"
สวนรุกขชาติ,Arboretum,สวนรุกขชาติเขาพุทธทอง,Kho put thong Arboretum,จุดชมวิวเขานางแอ,Kho nang air View Point,สำนักวิจัยการอนุรักษ์ป่าไม้และพันธุ์พืช,Forest and Plant Conservation Reseach Office,9.36194,99.1658,08.30 - 16.30 น.,ห้องน้ำแยกชาย - หญิง,ต.เสม็ด อ.ไชยา จ. สุราษฎร์ธานี 84110 E-mail : ole_63@hotmail.com Tel : 0886341463,สุราษฎร์ธานี,ไชยา,เลม็ด,,"9.36194, 99.1658"
สวนรุกขชาติ,Arboretum,สวนรุกขชาติรักษะวาริน,Rak sa wa rin  Arboretum, อุทยานแห่งชาติแหลมสน,Laemson National Park,สำนักวิจัยการอนุรักษ์ป่าไม้และพันธุ์พืช,Forest and Plant Conservation Reseach Office,9.958601,98.650025,08.30 - 16.30 น.,อาคารสำนักงาน ศาลาพักผ่อนหย่อนใจ ห้องน้ำ,ต.หาดสิบแป้น อ. เมือง จ. ระนอง 85000 E-mail :  tiger2540@hotmail.com,ระนอง,เมือง,หาดสิบแป้น,,"9.958601, 98.650025"
สวนรุกขชาติ,Arboretum,สวนรุกขชาติถ้ำเขานุ้ย,Tum khao nui  Arboretum,ถ้ำเขานุ้ย,Tum khao nui  Arboretum,สำนักวิจัยการอนุรักษ์ป่าไม้และพันธุ์พืช,Forest and Plant Conservation Reseach Office,6.988398,100.140746,08.30 - 16.30 น.,บ้านพัก 4 ครอบครัว 2 หลัง  ห้องน้ำ 3 ห้อง ศาลานั่งเล่น 1 หลัง ,ต.เขาพระ อ.รัตภูมิ จ. สงขลา 90180 E-mail :kesaree_rakchoomkong@hotmail.com,สงขลา,รัตภูมิ,เขาพระ,,"6.988398, 100.140746"
สวนรุกขชาติ,Arboretum,สวนรุกขชาติพฤกษามหาราชินี,Preuk sa ma ha ra chi nee Arboretum,วัดช้างให้ ,Chang Hai temple,สำนักวิจัยการอนุรักษ์ป่าไม้และพันธุ์พืช,Forest and Plant Conservation Reseach Office,6.668518,101.161489,08.30 - 16.30 น.,ห้องน้ำ 1 หลัง ศาลาที่พักนักท่องเที่ยว 2 หลัง ,ต.นาประดู่ อ.โคกโพธิ์ จ.ปัตตานี 94000 E-mail JomJu897@hotmail.com,ปัตตานี,โคกโพธิ์,นาประดู่,,"6.668518, 101.161489"
สวนรุกขชาติ,Arboretum,สวนรุกขชาติน้ำผุดทัพลาว,Nam Phut Thap Laos  Arboretum,น้ำผุดทัพลาว,Nam Phut Thap Laos,สำนักวิจัยการอนุรักษ์ป่าไม้และพันธุ์พืช,Forest and Plant Conservation Reseach Office,16.5409,101.8552,08.00 - 18.00 น.,ไม่มี รอจังหวัดชัยภูมิเข้ามาบริหารจัดการสิ่งก่อสร้างที่ได้จากงบประมาณจากกรมการท่องเที่ยวและกีฬา,ม.2 ต. ห้วยยาง อ. คอนสาร จ. ชัยภูมิ 36180 E-mail :suvan.bm@hotmail.com,ชัยภูมิ,คอนสาร,ห้วยยาง,,"16.5409, 101.8552"
สวนรุกขชาติ,Arboretum,สวนรุกขชาติภูกุ้มข้าว,Phu kum Kao Arboretum, อุทยานแห่งชาติตาดโตน,Tadtone National Park,สำนักวิจัยการอนุรักษ์ป่าไม้และพันธุ์พืช,Forest and Plant Conservation Reseach Office,16.325303,101.945049,08.30 - 16.30 น.,อาคาร สำนักงาน ศาลาพักผ่อนหย่อนใจ,ต.กุดเลาะ อ. เกษตรสมบูรณ์ จ. ชัยภูมิ 36120 E-mail chaibio@hotmail.com,ชัยภูมิ,เกษตรสมบูรณ์,กุดเลาะ,,"16.325303, 101.945049"
สวนรุกขชาติ,Arboretum,สวนรุกขชาติพุทธมณฑล,Phutthamonthon Arboretum,พุทธมณฑลอีสาน,The Great Buddhist Province of Isan,สำนักวิจัยการอนุรักษ์ป่าไม้และพันธุ์พืช,Forest and Plant Conservation Reseach Office,15.685,103.2622,08.30 - 16.30 น.,ห้องสุขาและห้องอาบน้ำ 2 หลัง ศาลาพักผ่อน 1 หลัง,อ.นาดูน จ. มหาสารคาม 44180 tel: 0981919150,มหาสารคาม,นาดูน,พระธาตุ,,"15.685, 103.2622"
สวนรุกขชาติ,Arboretum,สวนรุกขชาติท่าสองคอน,Tha Song Kon Arboretum,สวนรุกขชาติท่าสองคอน,Tha Song Kon Arboretum,สำนักวิจัยการอนุรักษ์ป่าไม้และพันธุ์พืช,Forest and Plant Conservation Reseach Office,16.184765,103.212229,08.30 - 16.30 น.,ศาลาพักผ่อน 2 หลัง ศาลาแสดงนิทรรศการ 1 หลัง ห้องสุขา 2 ห้อง,อ. เมือง จ. มหาสารคาม 44000 E-mail :rada_60ffs@hotmail.com,มหาสารคาม,เมือง,ท่าสองคอน,,"16.184765, 103.212229"
สวนรุกขชาติ,Arboretum,สวนรุกขชาติดงมะอี่,Dong Ma Ee Arboretum,"เส้นทางศึกษาธรรมชาติ / พักผ่อน ,ศาลา","Nature Trail / Shelter , Picnic Shelter",สำนักวิจัยการอนุรักษ์ป่าไม้และพันธุ์พืช,Forest and Plant Conservation Reseach Office,16.31362,104.205237,08.30 - 17.00 น.,ลานจอดรถ  ศาลาที่พัก  ห้องสุขารวม 2 ห้อง ไฟฟ้าและน้ำประปา,อ.หนองพอก จ. ร้อยเอ็ด 45210 E-mail : nareunart22@hotmail.com Tel : 081-3806510,ร้อยเอ็ด,หนองพอก,หนองพอก,,"16.31362, 104.205237"
สวนรุกขชาติ,Arboretum,สวนรุกขชาติโพนทราย,Poansai Arboretum,สวนรุกขชาติโพนทราย,Poansai Arboretum,สำนักวิจัยการอนุรักษ์ป่าไม้และพันธุ์พืช,Forest and Plant Conservation Reseach Office,15.489015,103.993141,08.30 - 16.30 น.,ศาลานั่งพักผ่อน จำนวน 3 หลัง ห้องน้ำ จำนวน 2 หลัง,อ. โพนทราย จ. ร้อยเอ็ด 45240 E-mail : vanatep2507@hotmail.com Tel: 0862500937,ร้อยเอ็ด,โพนทราย,โพนทราย,,"15.489015, 103.993141"
สวนรุกขชาติ,Arboretum,สวนรุกขชาติปากปวน,Pakpuan  Arboretum,สวนรุกขชาติปากปวน,Pakpuan  Arboretum,สำนักวิจัยการอนุรักษ์ป่าไม้และพันธุ์พืช,Forest and Plant Conservation Reseach Office,17.355021,101.750318,08.30 - 16.30 น.,บ้านพักรับรอง 2 หลัง ศาลาพักผ่อน 2 หลัง ห้องน้ำ 2 หลัง,อ.วังสะพุง จ.เลย 42130 E-mail : pakpuan.at@gmail.com Tel: 0854535599,เลย,วังสะพุง,ปากปวน,,"17.355021, 101.750318"
สวนรุกขชาติ,Arboretum,สวนรุกขชาติภูข้าว,Phu Kao Arboretum,สวนรุกขชาติภูข้าว,Phu Kao Arboretum,สำนักวิจัยการอนุรักษ์ป่าไม้และพันธุ์พืช,Forest and Plant Conservation Reseach Office,17.479666,101.950035,08.30 - 16.30 น.,ระเบียงชมวิว 1 แห่ง ห้องสุขา 1 หลัง,ต.นาด้วง อ.นาด้วง จ. เลย 42210 E-mail : saichon59ke@hotmail.com,เลย,นาด้วง,นาด้วง,,"17.479666, 101.950035"
สวนรุกขชาติ,Arboretum,สวนรุกขชาติเขาสวนกวาง,Khao Suan Kwang Arboretum,สวนรุกขชาติเขาสวนกวาง,Khao Suan Kwang Arboretum,สำนักวิจัยการอนุรักษ์ป่าไม้และพันธุ์พืช,Forest and Plant Conservation Reseach Office,16.8301498,102.9215309,ทุกวัน 08.00 - 17.00 น.,อาคารศูนย์บริการข้อมูลและแสดงนิทรรศการ 1 หลัง อาคารที่พักนักท่องเที่ยว (อาคารชุด 4 ห้องนอน) 1 หลัง อาคารที่พักนักท่องเที่ยว ขนาด 4 คน (2 ห้องนอน) 1 หลัง  ห้องน้ำและสุขา ชายหญิง ขนาด 8 ห้อง 1 หลัง ศาลาเอนกประสงค์ 2 หลัง และมีระบบไฟฟ้า,659 ม.14 ถ.มิตรภาพ ต.ศิลา อ.เมือง จ. ขอนแก่น 40000 E-mail : chok669921@outlook.com Tel : 081-6616699,ขอนแก่น,เขาสวนกวาง,คำม่วง,,"16.8301498, 102.9215309"
สวนรุกขชาติ,Arboretum,สวนรุกขชาติลุ่มน้ำพอง (โสกแต้),Lumnampong (Soktae) Arboretum,สวนรุกขชาติลุ่มน้ำพอง (โสกแต้),Lumnampong (Soktae) Arboretum,สำนักวิจัยการอนุรักษ์ป่าไม้และพันธุ์พืช,Forest and Plant Conservation Reseach Office,16.578366,102.583684,ทุกวัน 08.00 - 17.00 น.,อาคารศูนย์บริการข้อมูลและแสดงนิทรรศการ 1 หลัง อาคารที่พักนักท่องเที่ยว (อาคารชุด 4 ห้องนอน) 1 หลัง อาคารที่พักนักท่องเที่ยว ขนาด 4 คน (2 ห้องนอน) 1 หลัง  ห้องน้ำและสุขา ชายหญิง ขนาด 8 ห้อง 1 หลัง ศาลาเอนกประสงค์ 2 หลัง และมีระบบไฟฟ้า,659 ม.14 ถ.มิตรภาพ ต.ศิลา อ.เมือง จ.ขอนแก่น 40000 E-mail : wsun@hotmail.com Tel : 087-2207204,ขอนแก่น,ขอนแก่น,โคกงาม,,"16.578366, 102.583684"
สวนรุกขชาติ,Arboretum,สวนรุกขชาติอุบลวนารมณ์,Au Bon Wa Na Rome Arboretum,สวนรุกขชาติอุบลวนารมณ์,Au Bon Wa Na Rome Arboretum,สำนักวิจัยการอนุรักษ์ป่าไม้และพันธุ์พืช,Forest and Plant Conservation Reseach Office,15.27566,104.849774,08.30 - 16.30 น.,สนามเด็กเล่น ศาลเจ้าปู่บ้านเหลือง ซุ้มนั่งพักผ่อนหย่อนใจ ห้องน้ำ ลานจอดรถ,หมู่ 3 ต.ขามใหญ่ อ.เมือง จ.อุบลราชธานี 34000 E-mail : suwanna_dnp@hotmail.com,อุบลราชธานี,เมือง,ขามใหญ่,,"15.27566, 104.849774"
สวนรุกขชาติ,Arboretum,สวนรุกขชาติน้ำตกสำโรงเกียรติ,Samrongkiat Waterfall Arboretum,น้ำตกสำโรงเกียรติ,Samrongkiat Waterfall,สำนักวิจัยการอนุรักษ์ป่าไม้และพันธุ์พืช,Forest and Plant Conservation Reseach Office,14.509965,104.486922,ทุกวัน 08.30 - 16.30 น.,สำนักงาน ศาลาอำนวยความสะดวกนักท่องเที่ยว 1 หลัง อาคารเอนกประสงค์ 1 หลัง บ้านพักข้าราขการ บ้านพักคนงาน 4 ครอบครัว ,ตู้ ปณ. 11 อ.ขุนหาญ จ. ศรีสะเกษ 33150 E-mail : rujm09@gmail.com Tel : 084-392-1581,ศรีสะเกษ,ขุนหาญ,บักดอง,,"14.509965, 104.486922"
สวนรุกขชาติ,Arboretum,สวนรุกขชาติดงบังอี่,Dong Bung Ei  Arboretum,สวนรุกขชาติดงบังอี่,Dong Bungi Arboretum,สำนักวิจัยการอนุรักษ์ป่าไม้และพันธุ์พืช,Forest and Plant Conservation Reseach Office,16.404182,104.576594,08.30 - 16.30 น.,ที่ทำการชั่วคราว ห้องน้ำ สุขา,ต.หนองแวง อ.นิคมคำสร้อย จ. มุกดาหาร 49130 E-mail : kiti2516@gmail.com,มุกดาหาร,นิคมคำสร้อย,หนองแวง,,"16.404182, 104.576594"
สวนรุกขชาติ,Arboretum,สวนรุกขชาติน้ำตกธารทอง,Namtok TarnThong Arboretum,น้ำตกธารทอง / เส้นทางศึกษาธรรมชาติ / พักผ่อน ศาลา,Namtok TarnThong  Waterfall / Nature Trail / Picnic Shelter,สำนักวิจัยการอนุรักษ์ป่าไม้และพันธุ์พืช,Forest and Plant Conservation Reseach Office,18.02937,102.36444,08.30 - 16.30 น.,ลานจอดรถ ศาลาที่พัก ห้องสุขา ไฟฟ้า น้ำ,E-mail : sophonn_25022@hotmail.com Tel : 081-7413474,หนองคาย,สังคม,ผาตั้ง,,"18.02937, 102.36444"
สวนรุกขชาติ,Arboretum,สวนรุกขชาติวังปอพาน,Wang Por Phan Arboretum,สวนรุกขชาติวังปอพาน ห้วยวังปอพาน เส้นทางเดินศึกษาธรรมชาติรอบหนองน้ำและป่าเต็งรัง,Wang Por Phan Arboretum,สำนักวิจัยการอนุรักษ์ป่าไม้และพันธุ์พืช,Forest and Plant Conservation Reseach Office,17.2033,104.5256,08.30 - 16.30 น.,"ลานจอดรถ, ศาลาริมน้ำ, สำนักงานชั่วคราว, อาคารแสดงนิทรรศการ , ห้องน้ำ ไฟฟ้า ",ต.ปลาปาก อ.ปลาปาก จ. นครพนม  48160 E-mail : n.kasamar@yahoo.com,นครพนม,ปลาปาก,ปลาปาก,,"17.2033, 104.5256"
สวนรุกขชาติ,Arboretum,สวนรุกขชาติบ้านดุง,BanDung Arboretum,สวนรุกขชาติบ้านดุง เส้นทางศึกษาธรรมชาติ,Baan Dung Arboretum / Nature trail,สำนักวิจัยการอนุรักษ์ป่าไม้และพันธุ์พืช,Forest and Plant Conservation Reseach Office,17.69117,103.2679,08.30 - 16.30 น.,ศาลาพักผ่อน อาคารเอนกประสงค์ ห้องน้ำ ไฟฟ้า บ้านพัก,ต.ศรีสุทโธ อ.บ้านดุง จ.อุดรธานี 41190 E-mail :kudta.50@gmail.com,อุดรธานี,เมือง,หมากแข้ง,,"17.69117, 103.2679"
สวนรุกขชาติ,Arboretum,สวนรุกขชาติ 60 ปี ความสัมพันธ์ทางการทูตไทย-ลาว ,Thai - Laos Arboretum in Celebrating of 60 years of Diplomatic Relations,สวนรุกขชาติ 60 ปี ความสัมพันธ์ทางการทูตไทย-ลาว ,Thai - Laos Arboretum in Celebrating of 60 years of Diplomatic Relations,สำนักวิจัยการอนุรักษ์ป่าไม้และพันธุ์พืช,Forest and Plant Conservation Reseach Office,17.85647,102.72795,08.30 - 16.30 น.,ห้องน้ำ ห้องสุขา จำนวน 2 หลัง แบ่งเป็น อาบน้ำชาย 1 ห้อง สุขาชาย 4 ห้อง และ ห้องอาบน้ำหญิง 2 ห้อง สุขาหญิง 10 ห้อง และห้องน้ำห้องสุขาคนพิการ 1 ห้อง  ศาลาพักผ่อนแปดเหลี่ยมขนาดเล็ก 3  หลัง ศาลาพักผ่อนแปดเหลี่ยมขนาดใหญ่  1 หลัง,ตำบลหนองกอมเกาะ อำเภอเมือง จังหวัดหนองคาย 43000 E-mail : thailaosarb@gmail.com Tel : 0818665054,หนองคาย,เมือง,หนองกอมเกาะ,,"17.85647, 102.72795"
สวนรุกขชาติ,Arboretum,สวนรุกขชาติบ้านแพะ,Banphae Arboretum,สวนรุกขชาติบ้านแพะ,Banphae Arboretum,สำนักวิจัยการอนุรักษ์ป่าไม้และพันธุ์พืช,Forest and Plant Conservation Reseach Office,17.40423,100.329035,08.30 - 16.30 น.,สำนักงานชั่วคราว ห้องพักชั่วคราว ซุ้มศาลาพักผ่อน ห้องน้ำ ไฟฟ้า น้ำประปาภูเขา,ม.7 ต.บ่อทอง อ.ทองแสนขัน จ. อุตรดิตถ์ 53230 e-mail : suphawat43@hotmail.com,อุตรดิตถ์,ทองแสนขัน,บ่อทอง,,"17.40423, 100.329035"
สวนรุกขชาติ,Arboretum,สวนรุกขชาติซับชมภู,Sub Chom Phu Arboretum,สวนรุกขชาติซับชมภู,Sub Chom Phu Arboretum,สำนักวิจัยการอนุรักษ์ป่าไม้และพันธุ์พืช,Forest and Plant Conservation Reseach Office,15.926512,100.96106,08.30 - 16.30 น.,อาคาร สำนักงานชั่วคราว ศาลาพักผ่อน ห้องน้ำ-สุขา,ม.8 ต.บ้านโภชน์ อ.หนองไผ่ จ. เพชรบูรณ์ 67140 E-mail :maruj29@hotmail.com,เพรชบูรณ์,หนองไผ่,บ้านโภชน์,,"15.926512, 100.96106"
สวนรุกขชาติ,Arboretum,สวนรุกขชาติเมืองราด,Meaungrat  Arboretum,สวนรุกขชาติเมืองราด,Meaungrat  Arboretum,สำนักวิจัยการอนุรักษ์ป่าไม้และพันธุ์พืช,Forest and Plant Conservation Reseach Office,16.445995,101.122443,ทุกวัน 08.30 - 16.30 น.,สำนักงาน บ้านพัก ศาลาพักผ่อน ห้องน้ำ ไฟฟ้า น้ำประปา อินเตอร์เน็ต,32 หมู่ 5 ต.น้ำชุน อ.หล่มสัก จ. เพชรบูรณ์ 67110 E-mail : maunglard@yahoo.co.th,เพรชบูรณ์,หล่มสัก,น้ำชุน,,"16.445995, 101.122443"
สวนรุกขชาติ,Arboretum,สวนรุกขชาติไพศาลี (ซับสมบูรณ์),Phaisale Arboretum,สวนรุกขชาติไพศาลี,Phaisale Arboretum,สำนักวิจัยการอนุรักษ์ป่าไม้และพันธุ์พืช,Forest and Plant Conservation Reseach Office,15.546738,100.78059,ทุกวัน 08.30 - 16.30 น.,ศูนย์บริการข้อมูลและนิทรรศการ 1 หลัง บ้านพักรับรองนักท่องเที่ยว 2 หลัง ห้องสุขา (ชาย หญิง) ขนาด 8 ห้อง 2 หลัง ลานกางเต้นท์ ขนาด 100 หลัง 2 แห่ง เส้นทางศึกษาธรรมชาติ 1 แห่ง เส้นทางศึกษาพรรณไม้  1 แห่ง,หมู่ 6 ต.วังข่อย อ.ไพศาลี จ.นครสวรรค์ 60220  E-mail : nat12nuch@gmail.com,นครสวรรค์,ไพศาลี,วังข่อย,,"15.546738, 100.78059"
สวนรุกขชาติ,Arboretum,สวนรุกขชาติกาญจนกุมาร,Kan cha na ku man Arboretum,วัดมหาธาตุ,Wat  Ma Ha Tat,สำนักวิจัยการอนุรักษ์ป่าไม้และพันธุ์พืช,Forest and Plant Conservation Reseach Office,16.049911,100.296658,06.00 - 18.00 น.,ห้องน้ำ ลานกางเต้นท์,19/47 ถ.โกสีย์ใต้ ต.ปากน้ำโพ อ.เมือง จ. นครสวรรค์  60000 E-mail : su_trakun@hotmail.com,พิจิตร,เมือง,โรงช้าง,,"16.049911, 100.296658"
สวนรุกขชาติ,Arboretum,สวนรุกขชาติห้วยทรายขาว,Huai Sai Khao Arboretum,สวนรุกขชาติห้วยทรายขาว,Huai Sai Khao Arboretum,สำนักวิจัยการอนุรักษ์ป่าไม้และพันธุ์พืช,Forest and Plant Conservation Reseach Office,18.094868,99.851183,08.30 - 16.30 น.,เรือนเพาะชำ อาคาร สำนักงาน ซุ้มที่นั่งพักผ่อนหย่อนใจ,ต.ห้วยอ้อ อ.ลอง จ. แพร่ 54150 E-mail: kanyarat50@hotmail.com,แพร่,ลอง,ห้วยอ้อ,,"18.094868, 99.851183"
สวนรุกขชาติ,Arboretum,สวนรุกขชาติห้วยโรง,Huay Rong Arboretum,น้ำตกห้วยโรง,Huay Rong Waterfall,สำนักวิจัยการอนุรักษ์ป่าไม้และพันธุ์พืช,Forest and Plant Conservation Reseach Office,18.442393,100.449017,08.30 - 16.30 น.,อาคารสำนักงาน ศาลาพักผ่อนหย่อนใจ ห้องน้ำ,อ.ร้องกวาง จ. แพร่ 54140 Tel : 0979188486,แพร่,ร้องกวาง,ห้วยโรง,,"18.442393, 100.449017"
สวนรุกขชาติ,Arboretum,สวนรุกขชาติช่อแฮ,Cho Hae Arboretum,สวนรุกขชาติช่อแฮ,Cho Hae Arboretum,สำนักวิจัยการอนุรักษ์ป่าไม้และพันธุ์พืช,Forest and Plant Conservation Reseach Office,18.086679,100.2031,08.30 - 16.30 น.,อาคารสำนักงาน ศาลาพักผ่อนหย่อนใจ ห้องน้ำ,อ.เมือง จ. แพร่ 54000 Tel : 0882602895,แพร่,เมือง,ช่อแฮ,,"18.086679, 100.2031"
สวนรุกขชาติ,Arboretum,สวนรุกขชาติห้วยทาก,Huay Tak Arboretum,สวนรุกขชาติห้วยทาก,Huay Tak Arboretum,สำนักวิจัยการอนุรักษ์ป่าไม้และพันธุ์พืช,Forest and Plant Conservation Reseach Office,18.6344,99.9064,08.30 - 16.30 น.,ซุ้มที่นั่งพักผ่อนหย่อนใจ,ต.บ้านหวด อ.งาว จ. ลำปาง 52110 E-mail : santi4547@hotmail.com,ลำปาง ,งาว,บ้านหวด,,"18.6344, 99.9064"
สวนรุกขชาติ,Arboretum,สวนรุกขชาติพระบาท,PhraBaht  Arboretum,สวนรุกขชาติพระบาท,PhraBaht  Arboretum,สำนักวิจัยการอนุรักษ์ป่าไม้และพันธุ์พืช,Forest and Plant Conservation Reseach Office,18.2539,99.5639,ทุกวัน 08.30 - 16.30 น.,อาคารสำนักงาน ศาลาพักผ่อนหย่อนใจ ห้องน้ำ,E-mail : mamuto_911@hotmail.com  Tel : 089-8508737,ลำปาง ,เมือง,พระบาท,,"18.2539, 99.5639"
สวนรุกขชาติ,Arboretum,สวนรุกขชาติห้างฉัตร,Hang Chat Arboretum,สวนรุกขชาติห้างฉัตร,Hang Chat Arboretum,สำนักวิจัยการอนุรักษ์ป่าไม้และพันธุ์พืช,Forest and Plant Conservation Reseach Office,18.323226,99.294389,08.30 - 16.30 น.,ป้ายสื่อความหมาย อาคาร สำนักงาน ,ต. เวียงตาล อ.ห้างฉัตร จ. ลำปาง 52190 e-mail: forbio59@hotmail.com,ลำปาง ,ห้างฉัตร,เวียงตาล,,"18.323226, 99.294389"
สวนรุกขชาติ,Arboretum,สวนรุกขชาติแช่แห้ง,Chae Heang Arboretum,สวนรุกขชาติแช่แห้ง,Chae Heang Arboretum,สำนักวิจัยการอนุรักษ์ป่าไม้และพันธุ์พืช,Forest and Plant Conservation Reseach Office,18.760499,100.791652,08.00 - 16.30 น.,อาคารสำนักงาน ศาลาพักผ่อนหย่อนใจ ห้องน้ำ,อ.ภูเพียง จ. น่าน 55110 tel: 0899515689,น่าน,ภูเพียง,ม่วงติ๊ด,,"18.760499, 100.791652"
สวนรุกขชาติ,Arboretum,สวนรุกขชาติห้วยน้ำอุ่น,Haui Nam Oun Arboretum,สวนรุกขชาติห้วยน้ำอุ่น,Haui Nam Oun Arboretum,สำนักวิจัยการอนุรักษ์ป่าไม้และพันธุ์พืช,Forest and Plant Conservation Reseach Office,18.506552,100.531424,08.30 - 16.30 น.,อาคารสำนักงาน ศาลาพักผ่อนหย่อนใจ ห้องน้ำ,อ.เวียงสา จ. น่าน 55110 Tel: 0931964246,น่าน,เวียงสา,อ่ายนาไลย,,"18.506552, 100.531424"
สวนรุกขชาติ,Arboretum,สวนรุกขชาติเขาดินไพรวัน,Khao din pri wan Arboretum,สวนรุกขชาติเขาดินไพรวัน,Khao din pri wan Arboretum,สำนักวิจัยการอนุรักษ์ป่าไม้และพันธุ์พืช,Forest and Plant Conservation Reseach Office,17.176,99.608,08.30 - 16.30 น.,ห้องสุขา  โต๊ะสนาม ศาลา ,ถ. ทุ่งเสลี่ยม-ศรีสำโรง ต.นาขุนไกร อ.ศรีสำโรง จ.สุโขทัย 64120 e-mail: sunti_akavipat@hotmail.com Tel: 088-1529930,สุโขทัย,ศรีสำโรง,นาขุนไกร,,"17.176, 99.608"
สวนรุกขชาติ,Arboretum,สวนรุกขชาติโป่งสลี,PongSaLee Arboretum,สวนรุกขชาติโป่งสลี,PongSaLee Arboretum,สำนักวิจัยการอนุรักษ์ป่าไม้และพันธุ์พืช,Forest and Plant Conservation Reseach Office,19.835508,99.786769,08.30 - 16.30 น.,อาคารสำนักงาน บ้านพัก 4 ห้อง ศาลา 2 หลัง ห้องน้ำ 14 ห้อง,ต. สันทราย อ. เมือง จ. เชียงราย 57000 E-mail : pongsalee_cr@hotmail.com/ksaran60@hotmail.com, เชียงราย ,เมือง,สันทราย,,"19.835508, 99.786769"
สวนรุกขชาติ,Arboretum,สวนรุกขชาติ 80 พรรษา มหาราชินี,Her Majesty The Quee's 80th Birthday Arboretum,สวนรุกขชาติ 80 พรรษา มหาราชินี,Her Majesty The Quee's 80th Birthday Arboretum,สำนักวิจัยการอนุรักษ์ป่าไม้และพันธุ์พืช,Forest and Plant Conservation Reseach Office,6.668518,101.161489,08.30 - 16.30 น.,อาคารเอนกประสงค์ จำนวน 1 หลัง อาคารห้องน้ำ 1 หลัง, ตำบลแม่เจดีย์ใหม่ อำเภอเวียงป่าเป้า จังหวัดเชียงราย 57000 E-mail : sonrukkachat_80pansa@hotmail.com, เชียงราย ,เวียงป่าเป้า,แม่เจดีย์ใหม่,,"6.668518, 101.161489"
สวนรุกขชาติ,Arboretum,สวนรุกขชาติไม้เมืองหนาว,Mai Muang Nao Arboretum,สวนรุกขชาติไม้เมืองหนาว,Mai Muang Nao Arboretum,สำนักวิจัยการอนุรักษ์ป่าไม้และพันธุ์พืช,Forest and Plant Conservation Reseach Office,18.161226,98.281717,8.30 - 16.30 น.,ลานกางเต้นท์,ต.บ่อสลี อ.ฮอด จ. เชียงใหม่ 50240 E-mail : kwanwongkom@yahoo.com Tel: 0800671616,เชียงใหม่,ฮอด,บ่อสลี,,"18.161226, 98.281717"
สวนรุกขชาติ,Arboretum,สวนรุกขชาติห้วยแก้ว,Huai keaw Arboretum,สวนรุกขชาติห้วยแก้ว,Huai keaw Arboretum,สำนักวิจัยการอนุรักษ์ป่าไม้และพันธุ์พืช,Forest and Plant Conservation Reseach Office,18.810321,98.949416,8.30 - 16.30 น.,อาคารศูนย์นิทรรศการ โรงเรียนกล้วยไม้ ป้ายสื่อความหมาย บ้านพัก ห้องน้ำ,อ.เมือง จ. เชียงใหม่ 50000 E-mail : huaikaeoarboretum@gmail.com/aphanteess@msm.com,เชียงใหม่,เมือง,ห้วยแก้ว,,"18.810321, 98.949416"
สวนรุกขชาติ,Arboretum,สวนรุกขชาติแม่สุริน,Measurin Arboretum,สวนรุกขชาติแม่สุริน,Measurin Arboretum,สำนักวิจัยการอนุรักษ์ป่าไม้และพันธุ์พืช,Forest and Plant Conservation Reseach Office,18.879509,97.94053,8.30 - 16.30 น.,ที่พัก ห้องสุขา,หมู่ 1 ต.ขุนยวม อ.ขุนยวม จ. แม่ฮ่องสอน 58140 E-mail : niddsk@gmail.com,แม่ฮ่องสอน,ขุนยวม,ขุนยวม,,"18.879509, 97.94053"
สวนรุกขชาติ,Arboretum,สวนรุกขชาติห้วยชมภู,Huai Chomphu Arboretum,สวนรุกขชาติห้วยชมภู,Huai Chomphu Arboretum,สำนักวิจัยการอนุรักษ์ป่าไม้และพันธุ์พืช,Forest and Plant Conservation Reseach Office,E 387461,N 2011115,8.30 - 16.30 น.,ที่พัก ห้องสุขา,612 หมู่ 6 ต.แม่สะเรียง  อ.แม่สะเรียง จ. แม่ฮ่องสอน 58110,แม่ฮ่องสอน,แม่สะเรียง,บ้านกาศ,,"E 387461, N 2011115"
สวนรุกขชาติ,Arboretum,สวนรุกขชาติดอยหมากหินหอม,Doi Mark Hin Hom Arboretum,สวนรุกขชาติดอยหมากหินหอม,Doi Mark Hin Hom Arboretum,สำนักวิจัยการอนุรักษ์ป่าไม้และพันธุ์พืช,Forest and Plant Conservation Reseach Office,19.225806,97.968822,8.30 - 16.30 น.,สำนักงาน 1 หลัง หอพักน้ำ - ส่งน้ำ 1 หลัง เรือนเพาะชำกล้าไม้ 1 หลัง โรงเก็บรถยนต์แดละพัสดุ 1 หลัง และบ้านพักคนงาน 4 ครอบครัว 1 หลัง,หมู่ 4 ต.ผาบ่อง อ.เมือง จ.แม่ฮ่องสอน 58000 E-mail : lajung2510@hotmail.com,แม่ฮ่องสอน,เมืองแม่ฮ่องสอน,ผาบ่อง,,"19.225806, 97.968822"
สวนรุกขชาติ,Arboretum,สวนรุกขชาติโป่งแข่,PongKae Arboretum,สวนรุกขชาติโป่งแข่,PongKae Arboretum,สำนักวิจัยการอนุรักษ์ป่าไม้และพันธุ์พืช,Forest and Plant Conservation Reseach Office,19.292188,97.969455,8.30 - 16.30 น.,สำนักงานชั่วคราว 1 หลัง ห้องสุขาชาย 1 หลัง จำนวน 5 ห้อง และ ห้องสุขาหญิง 1 หลัง จำนวน 5 ห้อง,อ.เมือง จ. แม่ฮ่องสอน 58000 E-mail : lajung2510@hotmail.com,แม่ฮ่องสอน,เมืองแม่ฮ่องสอน,ปางหมู,,"19.292188, 97.969455"
ศูนย์กีฏวิทยาป่าไม้,Forest Entomology Research Center,ศูนย์กีฏวิทยาป่าไม้ที่ 1 (ลำปาง),1st Forest Entomology Research Center,ศูนย์กีฏวิทยาป่าไม้ที่ 1 (ลำปาง),1st Forest Entomology Research Center,อยู่ระหว่างรอย้ายไปให้กรมป่าไม้,,18.65952,99.922674,8.30 - 16.30 น.,ฐานเรียนรู้ 7 ฐาน คือ ฐานศึกษาอุปกรณ์กับดักแมลง สวนผีเสื้อ ห้องฉายสาร,ตำบลบ้านหวด อำเภองาว จังหวัดลำปาง  52110,ลำปาง ,งาว,บ้านหวด,,"18.65952, 99.922674"
ศูนย์กีฏวิทยาป่าไม้,Forest Entomology Research Center,ศูนย์กีฏวิทยาป่าไม้ที่ 2 (ขอนแก่น),2nd Forest Entomology Research Center,ศูนย์กีฏวิทยาป่าไม้ที่ 2 (ขอนแก่น),2nd Forest Entomology Research Center,สำนักวิจัยการอนุรักษ์ป่าไม้และพันธุ์พืช,Forest and Plant Conservation Reseach Office,16.85888,102.20916,8.30 - 16.30 น.,อาคารสำนักงาน ศาลาพักผ่อนหย่อนใจ ห้องน้ำ,ตู้ ปณ.3 ต.โนนหัน อ.ชุมแพ จ.ขอนแก่น 40290,ขอนแก่น,ชุมแพ,โนนหัน,,"16.85888, 102.20916"
ศูนย์กีฏวิทยาป่าไม้,Forest Entomology Research Center,ศูนย์กีฏวิทยาป่าไม้ที่ 3 (จันทบุรี),3rd Forest Entomology Research Center,พิพิธภัณฑ์แมลง,Insect Museum,อยู่ระหว่างรอย้ายไปให้กรมป่าไม้,,13.0044,108.2813,8.00 - 16.30 น.,ลานจอดรถ ศาลาที่พัก,ม.4 ต.ทับไทร อ.โป่งน้ำร้อน จ.จันทบุรี 22140 E-mail : weerasak65@dnp.go.th Tel: 086-6239065,จันทบุรี,โป่งน้ำร้อน,ทับไทร,,"13.0044, 108.2813"
สถานีเพาะเลี้ยงสัตว์ป่า,Wildlife  Breeding Station,ชมสัตว์,Watch wildlife,สถานีเพาะเลี้ยงสัตว์ป่าบางละมุง,Bang-lamung Wildlife  Breeding station,กลุ่มงานเพาะเลี้ยงสัตว์ป่า,wildlife breeding Division,12.77815706,100.972966,ตลอดทั้งปีเวลา 09.00 -16.00 น., -,087-1296112,ชลบุรี,บางละมุง,ห้วยใหญ่,เจ้าหน้าที่อนุญาตให้เข้าชมได้,"12.7781570605, 100.972965952"
สถานีเพาะเลี้ยงสัตว์ป่า,Wildlife  Breeding Station,ชมสัตว์,Watch wildlife,สถานีเพาะเลี้ยงสัตว์ป่าเขาค้อ,Khao-kho Wildlife  Breeding station,กลุ่มงานเพาะเลี้ยงสัตว์ป่า,wildlife breeding Division,16.60994678,100.9640029,ตลอดทั้งปีเวลา 09.00 -16.00 น.,ห้องน้ำ โต๊ะม้าหิน ศาลาพักผ่อน, 087-198405-6,เพชรบูรณ์,เขาค้อ,เขาค้อ,,"16.6099467811, 100.964002857"
สถานีเพาะเลี้ยงสัตว์ป่า,Wildlife  Breeding Station,แสดงพันธุ์สัตว์ป่า,Wildlife Information,ส่วนแสดงพันธุ์สัตว์ป่าเขาประทับช้าง,Khao Partapchang wildlife Division Information,กลุ่มงานเพาะเลี้ยงสัตว์ป่า,wildlife breeding Division,13.61151619,99.65870187,ตลอดทั้งปีเวลา 09.00 -16.00 น., -,081-861-3187 087-797-6954 011-016-7077,ราชบุรี,จอมบึง,จอมบึง,หน.สถานีฯเจ้าหน้าที่ให้บริการโดยไม่เก็บค่าธรรมเนียม,"13.6115161931, 99.6587018672"
สถานีเพาะเลี้ยงสัตว์ป่า,Wildlife  Breeding Station,ชมสัตว์,Watch wildlife,สถานีเพาะเลี้ยงสัตว์ป่าภูเขียว,Phukhieo Wildlife  Breeding station,กลุ่มงานเพาะเลี้ยงสัตว์ป่า,wildlife breeding Division,16.48969905,101.7186537,ตลอดทั้งปี,ห้องน้ำ,081-7080170,ชัยภูมิ,คอนสาร,ทุ่งลุยลาย,เจ้าหน้าที่อนุญาตให้เข้าชมได้,"16.4896990522, 101.718653656"
สถานีเพาะเลี้ยงสัตว์ป่า,Wildlife  Breeding Station,ชมสัตว์,Watch wildlife,สถานีเพาะเลี้ยงสัตว์ป่าห้วยทราย,Huai-Sai Wildlife Breeding station,กลุ่มงานเพาะเลี้ยงสัตว์ป่า,wildlife breeding Division,12.66754794,99.91353494,ตลอดทั้งปี08.30-16.30 น.,ห้องน้ำ ห้องสุขา,086-9092025,เพชรบุรี,ชะอำ,สามพระยา,เจ้าหน้าที่อนุญาตให้เข้าชมได้,"12.667547937, 99.9135349352"
สถานีเพาะเลี้ยงสัตว์ป่า,Wildlife  Breeding Station,ชมสัตว์,Watch wildlife,สถานีเพาะเลี้ยงสัตว์ป่าเขาสน,Khao-son Wildlife  Breeding station,กลุ่มงานเพาะเลี้ยงสัตว์ป่า,wildlife breeding Division,13.58111194,99.48821143,ตลอดทั้งปี08.30-16.30 น,ห้องน้ำ ห้องสุขา,086-9092025,ราชบุรี,จอมบึง,รางบัว,เจ้าหน้าที่อนุญาตให้เข้าชมได้,"13.5811119448, 99.4882114282"
สถานีเพาะเลี้ยงสัตว์ป่า,Wildlife  Breeding Station,ชมสัตว์,Watch wildlife,ศูนย์เรียนรู้การอนุรักษ์สัตว์ป่าและป่าไม้ จ.แม่ฮ่องสอน,Mae Hong Son Zoo.,กลุ่มงานเพาะเลี้ยงสัตว์ป่า,wildlife breeding Division,19.35645253,97.97193307,ตลอดทั้งปี08.30-16.30 น.,ห้องน้ำ ห้องสุขา,053-061072,แม่ฮ่องสอน,เมือง,ปางหมู,เจ้าหน้าที่อนุญาตให้เข้าชมได้,"19.3564525306, 97.9719330655"
สถานีเพาะเลี้ยงสัตว์ป่า,Wildlife  Breeding Station,ชมสัตว์,Watch wildlife,สถานีเพาะเลี้ยงสัตว์ป่าปางตอง,Pang Tong wildlife breeding station,กลุ่มงานเพาะเลี้ยงสัตว์ป่า,wildlife breeding Division,19.50478145,97.93922938,ตลอดทั้งปี08.30-16.30 น.,ห้องน้ำ ห้องสุขา,053-061072,แม่ฮ่องสอน,เมือง,หมอกจำแป่,เจ้าหน้าที่อนุญาตให้เข้าชมได้,"19.5047814494, 97.9392293794"
สถานีเพาะเลี้ยงสัตว์ป่า,Wildlife  Breeding Station,ชมสัตว์,Watch wildlife,สถานีเพาะเลี้ยงสัตว์ป่าพังงา,Phang-nga wildlife breeding station,กลุ่มงานเพาะเลี้ยงสัตว์ป่า,wildlife breeding Division,8.416284244,98.48834511,ตลอดปี, -,076-481058,พังงา,เมือง,ตากแดด,เจ้าหน้าที่อนุญาตให้เข้าชมได้,"8.41628424422619, 98.4883451110361"
ทางทะเล,marine,แม่น้ำ / ลำคลอง / ทะเลสาบ,แม่น้ำ / ลำคลอง / ทะเลสาบ,บึงทะเลบัน,Thaleban Lake,อุทยานแห่งชาติทะเลบัน,Thale Ban National Park,629.552002,741.435974,,,,สตูล ,ควนโดน ,วังประจัน ,,
ทางทะเล,marine,น้ำตก,น้ำตก,น้ำตกยาโรย,Yaroi Waterfall,อุทยานแห่งชาติทะเลบัน,Thale Ban National Park,628.257019,746.965027,,,,สตูล ,ควนโดน ,วังประจัน ,,
ทางทะเล,marine,ชมพรรณไม้ / ป่าไม้,ชมพรรณไม้ / ป่าไม้,ทุ่งหญ้าวังประ,Wangpra Meadow,อุทยานแห่งชาติทะเลบัน,Thale Ban National Park,626.255005,739.619995,,,,สตูล ,ควนโดน ,วังประจัน ,,
ทางทะเล,marine,ถ้ำ,ถ้ำ,ถ้ำลอดปูยู,Puyu Cave,อุทยานแห่งชาติทะเลบัน,Thale Ban National Park,626.299988,722.700012,,,,สตูล ,ควนโดน ,วังประจัน ,,
ทางทะเล,terrestrial,น้ำตก,น้ำตก,น้ำตกป่าละอู ,Pa La-U Waterfall,อุทยานแห่งชาติแก่งกระจาน,Kaeng Krachan National Park,5.54574,13.85332,,,,เพชรบุรี ,แก่งกระจาน ,แก่งกระจาน ,,
ทางทะเล,terrestrial,จุดชมวิว,จุดชมวิว,ทะเลหมอก กม.36,View Point (Km.36) ,อุทยานแห่งชาติแก่งกระจาน,Kaeng Krachan National Park,5.35,14.19,,,,เพชรบุรี ,แก่งกระจาน ,แก่งกระจาน ,,
ทางทะเล,terrestrial,จุดชมวิว,จุดชมวิว,เขาพะเนินทุ่ง,Khao Phanoen Thung,อุทยานแห่งชาติแก่งกระจาน,Kaeng Krachan National Park,5.39,14.17,,,,เพชรบุรี ,แก่งกระจาน ,แก่งกระจาน ,,
ทางทะเล,terrestrial,แม่น้ำ / ลำคลอง / ทะเลสาบ,แม่น้ำ / ลำคลอง / ทะเลสาบ,โป่งลึก-บางกลอย,Pongluek-Bangkloi,อุทยานแห่งชาติแก่งกระจาน,Kaeng Krachan National Park,5.4,14.34,,,,เพชรบุรี ,แก่งกระจาน ,แก่งกระจาน ,,
ทางทะเล,terrestrial,จุดพักผ่อนในเขตบริการ,จุดพักผ่อนในเขตบริการ,บ้านกร่าง,Ban Krang,อุทยานแห่งชาติแก่งกระจาน,Kaeng Krachan National Park,5.49,14.14,,,,เพชรบุรี ,แก่งกระจาน ,แก่งกระจาน ,,
ทางทะเล,terrestrial,น้ำตก,น้ำตก,น้ำตกทอทิพย์,Thotip Walterfall,อุทยานแห่งชาติแก่งกระจาน,Kaeng Krachan National Park,5.39,14.17,,,,เพชรบุรี ,แก่งกระจาน ,แก่งกระจาน ,,
ทางทะเล,terrestrial,แม่น้ำ / ลำคลอง / ทะเลสาบ,แม่น้ำ / ลำคลอง / ทะเลสาบ,ริมอ่างเก็บน้ำเขื่อนแก่งกระจาน ,Kaeng Krachan Reservoir,อุทยานแห่งชาติแก่งกระจาน,Kaeng Krachan National Park,5.68883,14.24212,,,,เพชรบุรี ,แก่งกระจาน ,แก่งกระจาน ,,
ทางทะเล,marine,ทะเล / ชายหาด,ทะเล / ชายหาด,หาดท้องชิง,Had Thong Ching,อุทยานแห่งชาติหาดขนอม-หมู่เกาะทะเลใต้ (เตรียมการ),Hat Khanom - Mu Ko Thale Tai National Park,10.24243,59.277699,,,,นครศรีธรรมราช ,ขนอม ,ขนอม ,,
